{"type":"FeatureCollection","features":[{"id":"building_e_a","type":"Feature","properties":{"name":"A棟","name:en":"Building A","name:ja":"A棟","area":"east","indoorMap":"full","minLevel":0,"maxLevel":3},"geometry":{"type":"Point","coordinates":[139.54411186177165,35.656585056642875]}},{"id":"building_e_b","type":"Feature","properties":{"name":"B棟","name:en":"Building B","name:ja":"B棟","area":"east","indoorMap":"full","minLevel":0,"maxLevel":1},"geometry":{"type":"Point","coordinates":[139.54463264672893,35.65644144178789]}},{"id":"building_e_c","type":"Feature","properties":{"name":"C棟","name:en":"Building C","name:ja":"C棟","area":"east","indoorMap":"full","minLevel":0,"maxLevel":3},"geometry":{"type":"Point","coordinates":[139.5442775,35.65698]}},{"id":"building_e_new_c","type":"Feature","properties":{"name":"新C棟","name:en":"Building New C","name:ja":"新C棟","area":"east","indoorMap":"full","minLevel":0,"maxLevel":3},"geometry":{"type":"Point","coordinates":[139.544462,35.6569085]}},{"id":"building_e_d","type":"Feature","properties":{"name":"D棟","name:en":"Building D","name:ja":"D棟","area":"east","indoorMap":"full","minLevel":0,"maxLevel":3},"geometry":{"type":"Point","coordinates":[139.54474299999998,35.656850500000004]}},{"id":"auditorium","type":"Feature","properties":{"name":"アフラックホールUEC (講堂)","name:en":"Auditorium","name:ja":"アフラックホールUEC (講堂)","area":"east","minLevel":0,"maxLevel":2},"geometry":{"type":"Point","coordinates":[139.54437252688322,35.65559395355834]}},{"id":"health_care_center","type":"Feature","properties":{"name":"保健管理センター","name:en":"Health Care Center","name:ja":"保健管理センター","area":"east","minLevel":0,"maxLevel":1},"geometry":{"type":"Point","coordinates":[139.54362438696833,35.65804082688167]}},{"id":"university_center","type":"Feature","properties":{"name":"大学会館","name:en":"University Center","name:ja":"大学会館","area":"east","minLevel":0,"maxLevel":3},"geometry":{"type":"Point","coordinates":[139.54349626938907,35.65710920101075]}},{"id":"main","type":"Feature","properties":{"name":"本館","name:en":"Main Building","name:ja":"本館","area":"east","minLevel":0,"maxLevel":4},"geometry":{"type":"Point","coordinates":[139.54405400000002,35.656073]}},{"id":"gym","type":"Feature","properties":{"name":"第1体育館","name:en":"Gymnasium I","name:ja":"第1体育館","area":"west","minLevel":0,"maxLevel":1},"geometry":{"type":"Point","coordinates":[139.5423231934511,35.65749741609408]}},{"id":"gym_2","type":"Feature","properties":{"name":"第2体育館","name:en":"Gymnasium II","name:ja":"第2体育館","area":"west","minLevel":0,"maxLevel":1},"geometry":{"type":"Point","coordinates":[139.5423955,35.657194000000004]}},{"id":"building_e_1","type":"Feature","properties":{"name":"東1号館","name:en":"Building E-1","name:ja":"東1号館","area":"east","minLevel":0,"maxLevel":7},"geometry":{"type":"Point","coordinates":[139.54419059782865,35.65677106523482]}},{"id":"building_e_2","type":"Feature","properties":{"name":"東2号館","name:en":"Building E-2","name:ja":"東2号館","area":"east","minLevel":0,"maxLevel":5},"geometry":{"type":"Point","coordinates":[139.54318,35.6573745]}},{"id":"building_e_3","type":"Feature","properties":{"name":"東3号館","name:en":"Building E-3","name:ja":"東3号館","area":"east","indoorMap":"partial","minLevel":0,"maxLevel":9},"geometry":{"type":"Point","coordinates":[139.54354957938148,35.65770149025922]}},{"id":"building_e_4","type":"Feature","properties":{"name":"東4号館","name:en":"Building E-4","name:ja":"東4号館","area":"east","minLevel":0,"maxLevel":7},"geometry":{"type":"Point","coordinates":[139.544476633133,35.65746987163126]}},{"id":"building_e_5","type":"Feature","properties":{"name":"東5号館","name:en":"Building E-5","name:ja":"東5号館","area":"east","minLevel":0,"maxLevel":7},"geometry":{"type":"Point","coordinates":[139.54447691853585,35.65774694567338]}},{"id":"building_e_6","type":"Feature","properties":{"name":"東6号館","name:en":"Building E-6","name:ja":"東6号館","area":"east","minLevel":0,"maxLevel":8},"geometry":{"type":"Point","coordinates":[139.5443545,35.658094500000004]}},{"id":"building_e_7","type":"Feature","properties":{"name":"東7号館","name:en":"Building E-7","name:ja":"東7号館","area":"east","minLevel":0,"maxLevel":3},"geometry":{"type":"Point","coordinates":[139.544673238982,35.657949166047175]}},{"id":"building_e_8","type":"Feature","properties":{"name":"東8号館","name:en":"Building E-8","name:ja":"東8号館","area":"east","minLevel":0,"maxLevel":3},"geometry":{"type":"Point","coordinates":[139.54462650186926,35.65836448624636]}},{"id":"building_e_9","type":"Feature","properties":{"name":"東9号館","name:en":"Building E-9","name:ja":"東9号館","area":"east","minLevel":0,"maxLevel":3},"geometry":{"type":"Point","coordinates":[139.54450393989444,35.658533606500896]}},{"id":"building_e_10","type":"Feature","properties":{"name":"東10号館","name:en":"Building E-10","name:ja":"東10号館","area":"east","minLevel":0,"maxLevel":3},"geometry":{"type":"Point","coordinates":[139.54445748840803,35.658773598206615]}},{"id":"building_e_31","type":"Feature","properties":{"name":"東31号館","name:en":"Building E-31","name:ja":"東31号館","area":"east","minLevel":0,"maxLevel":1},"geometry":{"type":"Point","coordinates":[139.5443723274858,35.65906408080667]}},{"id":"building_e_32","type":"Feature","properties":{"name":"東32号館","name:en":"Building E-32","name:ja":"東32号館","area":"east","minLevel":0,"maxLevel":0},"geometry":{"type":"Point","coordinates":[139.54461606635795,35.65898174172877]}},{"id":"building_e_33","type":"Feature","properties":{"name":"東33号館","name:en":"Building E-33","name:ja":"東33号館","area":"east","minLevel":0,"maxLevel":1},"geometry":{"type":"Point","coordinates":[139.54340193513025,35.658950684359425]}},{"id":"building_e_34","type":"Feature","properties":{"name":"東34号館","name:en":"Building E-34","name:ja":"東34号館","area":"east","minLevel":0,"maxLevel":0},"geometry":{"type":"Point","coordinates":[139.5436910868127,35.65890833872641]}},{"id":"building_e_35","type":"Feature","properties":{"name":"東35号館","name:en":"Building E-35","name:ja":"東35号館","area":"east","minLevel":0,"maxLevel":1},"geometry":{"type":"Point","coordinates":[139.543383,35.658583]}},{"id":"building_e_36","type":"Feature","properties":{"name":"東36号館","name:en":"Building E-36","name:ja":"東36号館","area":"east","minLevel":0,"maxLevel":0},"geometry":{"type":"Point","coordinates":[139.5431105,35.657164]}},{"id":"building_e_37","type":"Feature","properties":{"name":"東37号館","name:en":"Building E-37","name:ja":"東37号館","area":"east","minLevel":0,"maxLevel":1},"geometry":{"type":"Point","coordinates":[139.5428133746221,35.65721619979233]}},{"id":"building_w_1","type":"Feature","properties":{"name":"西1号館","name:en":"Building W-1","name:ja":"西1号館","area":"west","minLevel":0,"maxLevel":4},"geometry":{"type":"Point","coordinates":[139.54105127176135,35.65698582996982]}},{"id":"building_w_2","type":"Feature","properties":{"name":"西2号館","name:en":"Building W-2","name:ja":"西2号館","area":"west","minLevel":0,"maxLevel":7},"geometry":{"type":"Point","coordinates":[139.541202,35.65741]}},{"id":"building_w_3","type":"Feature","properties":{"name":"西3号館","name:en":"Building W-3","name:ja":"西3号館","area":"west","minLevel":0,"maxLevel":4},"geometry":{"type":"Point","coordinates":[139.54053952826868,35.65712575181408]}},{"id":"building_w_4","type":"Feature","properties":{"name":"西4号館","name:en":"Building W-4","name:ja":"西4号館","area":"west","minLevel":0,"maxLevel":5},"geometry":{"type":"Point","coordinates":[139.54069609620305,35.65756671790673]}},{"id":"building_w_5","type":"Feature","properties":{"name":"西5号館","name:en":"Building W-5","name:ja":"西5号館","area":"west","minLevel":0,"maxLevel":7},"geometry":{"type":"Point","coordinates":[139.54192261543938,35.65716056975454]}},{"id":"building_w_6","type":"Feature","properties":{"name":"西6号館","name:en":"Building W-6","name:ja":"西6号館","area":"west","minLevel":0,"maxLevel":6},"geometry":{"type":"Point","coordinates":[139.541573,35.657697999999996]}},{"id":"building_w_7","type":"Feature","properties":{"name":"西7号館","name:en":"Building W-7","name:ja":"西7号館","area":"west","minLevel":0,"maxLevel":6},"geometry":{"type":"Point","coordinates":[139.54115372119466,35.65783217230961]}},{"id":"building_w_8","type":"Feature","properties":{"name":"西8号館","name:en":"Building W-8","name:ja":"西8号館","area":"west","minLevel":0,"maxLevel":7},"geometry":{"type":"Point","coordinates":[139.54084146500622,35.65659211003492]}},{"id":"building_w_9","type":"Feature","properties":{"name":"西9号館","name:en":"Building W-9","name:ja":"西9号館","area":"west","minLevel":0,"maxLevel":7},"geometry":{"type":"Point","coordinates":[139.5403769102686,35.65676849617994]}},{"id":"building_w_10","type":"Feature","properties":{"name":"西10号館","name:en":"Building W-10","name:ja":"西10号館","area":"west","minLevel":0,"maxLevel":7},"geometry":{"type":"Point","coordinates":[139.54214641185217,35.65675406145496]}},{"id":"building_w_11","type":"Feature","properties":{"name":"西11号館","name:en":"Building W-11","name:ja":"西11号館","area":"west","minLevel":0,"maxLevel":4},"geometry":{"type":"Point","coordinates":[139.54081046208444,35.657923612849224]}},{"id":"building_w_31","type":"Feature","properties":{"name":"西31号館","name:en":"Building W-31","name:ja":"西31号館","area":"west","minLevel":0,"maxLevel":1},"geometry":{"type":"Point","coordinates":[139.5415735758883,35.6567580223397]}},{"id":"dormitory_tomodachi","type":"Feature","properties":{"name":"ドーム友達 (学生宿舎)","name:en":"Student Dormitory (Tomodachi)","name:ja":"ドーム友達 (学生宿舎)","area":"100th","minLevel":0,"maxLevel":4},"geometry":{"type":"Point","coordinates":[139.53975690030418,35.65606402943527]}},{"id":"dormitory_kizuna","type":"Feature","properties":{"name":"ドーム絆 (学生宿舎)","name:en":"Student Dormitory - kizuna","name:ja":"ドーム絆 (学生宿舎)","area":"100th","minLevel":0,"maxLevel":4},"geometry":{"type":"Point","coordinates":[139.54056775506058,35.655755624939935]}},{"id":"extracurricular_facility","type":"Feature","properties":{"name":"課外活動施設 (サークル棟)","name:en":"Facilities for Extracurricular Activities","name:ja":"課外活動施設 (サークル棟)","area":"east","minLevel":0,"maxLevel":2},"geometry":{"type":"Point","coordinates":[139.54365585135386,35.65913069462249]}},{"id":"west_security_office","type":"Feature","properties":{"name":"西門守衛所","name:en":"Security Office of West Gate","name:ja":"西門守衛所","area":"west","minLevel":0,"maxLevel":0},"geometry":{"type":"Point","coordinates":[139.54035544817035,35.6574740121144]}},{"id":"cafeteria","type":"Feature","properties":{"name":"西食堂","name:en":"West Cafeteria","name:ja":"西食堂","area":"west","minLevel":0,"maxLevel":0},"geometry":{"type":"Point","coordinates":[139.54185832028782,35.656944350630695]}},{"id":"alliance_center","type":"Feature","properties":{"name":"UECアライアンスセンター","name:en":"Alliance Center","name:ja":"UECアライアンスセンター","area":"100th","minLevel":0,"maxLevel":4},"geometry":{"type":"Point","coordinates":[139.5402739653947,35.656110743764785]}},{"id":"80th_hall","type":"Feature","properties":{"name":"創立80周年記念会館「リサージュ」","name:en":"80th Anniversary Memorial Hall","name:ja":"創立80周年記念会館「リサージュ」","area":"east","minLevel":0,"maxLevel":2},"geometry":{"type":"Point","coordinates":[139.54336224147545,35.655694525196544]}},{"id":"international_house","type":"Feature","properties":{"name":"国際交流会館","name:en":"International House","name:ja":"国際交流会館","area":"east","minLevel":0,"maxLevel":4},"geometry":{"type":"Point","coordinates":[139.544128,35.659295]}},{"id":"east_security_office","type":"Feature","properties":{"name":"正門守衛所","name:en":"Security Office of the Main Gate","name:ja":"正門守衛所","area":"east","minLevel":0,"maxLevel":0},"geometry":{"type":"Point","coordinates":[139.5436078051848,35.655655253879836]}},{"id":"dormitory","type":"Feature","properties":{"name":"学生寮 (五思寮)","name:en":"Student Dormitory (Goshiryou)","name:ja":"学生寮 (五思寮)","area":"west","minLevel":0,"maxLevel":4},"geometry":{"type":"Point","coordinates":[139.54241527111785,35.65788583991048]}},{"id":"staff_housing","type":"Feature","properties":{"name":"UECポートロッジ (職員宿舎)","name:en":"Staff Housing","name:ja":"UECポートロッジ (職員宿舎)","area":"100th","minLevel":0,"maxLevel":4},"geometry":{"type":"Point","coordinates":[139.54002578698265,35.6556259476022]}},{"id":"east_tennis_court","type":"Feature","properties":{"name":"テニスコート","name:en":"Tennis Court","name:ja":"テニスコート","area":"east"},"geometry":{"type":"Point","coordinates":[139.54467132062203,35.655481636935185]}},{"id":"child_care_facility","type":"Feature","properties":{"name":"保育施設「UEC保育園どんぐり」","name:en":"Child-Care Facility","name:ja":"保育施設「UEC保育園どんぐり」","area":"east","minLevel":0,"maxLevel":1},"geometry":{"type":"Point","coordinates":[139.54453437092104,35.65925668520993]}},{"id":"personnel_clubhouse","type":"Feature","properties":{"name":"職員研修所","name:en":"Personnel Clubhouse","name:ja":"職員研修所","area":"east","minLevel":0,"maxLevel":2},"geometry":{"type":"Point","coordinates":[139.5445826032203,35.65913565187578]}},{"id":"west_tennis_court","type":"Feature","properties":{"name":"テニスコート","name:en":"Tennis Court","name:ja":"テニスコート","area":"west"},"geometry":{"type":"Point","coordinates":[139.5409725,35.6583325]}},{"id":"pool","type":"Feature","properties":{"name":"プール","name:en":"Swimming Pool","name:ja":"プール","area":"west"},"geometry":{"type":"Point","coordinates":[139.5405969754685,35.65823931552822]}},{"id":"archery","type":"Feature","properties":{"name":"弓道場","name:en":"Archery Facility","name:ja":"弓道場","area":"west","minLevel":0,"maxLevel":0},"geometry":{"type":"Point","coordinates":[139.54205349999998,35.6581515]}}]}
